start=new Date('2022-05-09T00:00:00.000Z').valueOf();
sats=[{"MEAN_ELEMENT_THEORY":"SGP4","NORAD_CAT_ID":"45237","CLASSIFICATION_TYPE":"U","COUNTRY_CODE":"US","SITE":"AFETR","EPOCH":"2022-05-08T09:37:37.530912","APOAPSIS":"548.654","FILE":"3435746","REF_FRAME":"TEME","OBJECT_ID":"2020-012BM","SEMIMAJOR_AXIS":"6925.353","ECCENTRICITY":"0.00020730","OBJECT_NAME":"STARLINK-1270","PERIAPSIS":"545.783","ELEMENT_SET_NO":"999","REV_AT_EPOCH":"12419","TLE_LINE2":"2 45237  53.0526 177.2573 0002073  40.9916 319.1228 15.06398463124195","EPHEMERIS_TYPE":"0","ARG_OF_PERICENTER":"40.9916","MEAN_MOTION":"15.06398463","MEAN_MOTION_DDOT":"0.0000000000000","LAUNCH_DATE":"2020-02-17","MEAN_ANOMALY":"319.1228","DECAY_DATE":null,"TIME_SYSTEM":"UTC","TLE_LINE1":"1 45237U 20012BM  22128.40112883  .00001162  00000-0  96922-4 0  9990","BSTAR":"0.00009692200000","OBJECT_TYPE":"PAYLOAD","PERIOD":"95.592","RA_OF_ASC_NODE":"177.2573","MEAN_MOTION_DOT":"0.00001162","CENTER_NAME":"EARTH","RCS_SIZE":"LARGE","GP_ID":"203013850","INCLINATION":"53.0526"},{"NORAD_CAT_ID":"45360","CLASSIFICATION_TYPE":"U","MEAN_ELEMENT_THEORY":"SGP4","COUNTRY_CODE":"US","SITE":"AFETR","OBJECT_ID":"2020-019A","SEMIMAJOR_AXIS":"6925.334","REF_FRAME":"TEME","FILE":"3435746","APOAPSIS":"548.239","EPOCH":"2022-05-08T11:49:00.412896","TLE_LINE2":"2 45360  53.0546 306.8397 0001502  79.6606 280.4552 15.06404851118944","REV_AT_EPOCH":"11894","PERIAPSIS":"546.159","ELEMENT_SET_NO":"999","ECCENTRICITY":"0.00015020","OBJECT_NAME":"STARLINK-1279","ARG_OF_PERICENTER":"79.6606","EPHEMERIS_TYPE":"0","LAUNCH_DATE":"2020-03-18","MEAN_ANOMALY":"280.4552","MEAN_MOTION_DDOT":"0.0000000000000","MEAN_MOTION":"15.06404851","BSTAR":"0.00019647000000","OBJECT_TYPE":"PAYLOAD","TIME_SYSTEM":"UTC","TLE_LINE1":"1 45360U 20019A   22128.49236589  .00002646  00000-0  19647-3 0  9999","DECAY_DATE":null,"RCS_SIZE":"LARGE","INCLINATION":"53.0546","GP_ID":"203013863","CENTER_NAME":"EARTH","PERIOD":"95.592","MEAN_MOTION_DOT":"0.00002646","RA_OF_ASC_NODE":"306.8397"},{"ARG_OF_PERICENTER":"79.4679","EPHEMERIS_TYPE":"0","MEAN_MOTION_DDOT":"0.0000000000000","LAUNCH_DATE":"2020-03-18","MEAN_ANOMALY":"280.6474","MEAN_MOTION":"15.06387726","OBJECT_TYPE":"PAYLOAD","BSTAR":"0.00007694100000","TLE_LINE1":"1 45361U 20019B   22128.54673123  .00000864  00000-0  76941-4 0  9996","TIME_SYSTEM":"UTC","DECAY_DATE":null,"INCLINATION":"53.0558","GP_ID":"203014619","RCS_SIZE":"LARGE","CENTER_NAME":"EARTH","PERIOD":"95.593","RA_OF_ASC_NODE":"316.5950","MEAN_MOTION_DOT":"0.00000864","NORAD_CAT_ID":"45361","CLASSIFICATION_TYPE":"U","MEAN_ELEMENT_THEORY":"SGP4","SITE":"AFETR","COUNTRY_CODE":"US","SEMIMAJOR_AXIS":"6925.386","OBJECT_ID":"2020-019B","REF_FRAME":"TEME","FILE":"3435746","EPOCH":"2022-05-08T13:07:17.578272","APOAPSIS":"548.258","TLE_LINE2":"2 45361  53.0558 316.5950 0001454  79.4679 280.6474 15.06387726118828","REV_AT_EPOCH":"11882","PERIAPSIS":"546.244","ELEMENT_SET_NO":"999","OBJECT_NAME":"STARLINK-1301","ECCENTRICITY":"0.00014540"},{"COUNTRY_CODE":"US","SITE":"AFETR","MEAN_ELEMENT_THEORY":"SGP4","NORAD_CAT_ID":"45362","CLASSIFICATION_TYPE":"U","PERIAPSIS":"546.117","ELEMENT_SET_NO":"999","ECCENTRICITY":"0.00016050","OBJECT_NAME":"STARLINK-1306","TLE_LINE2":"2 45362  53.0560 339.0677 0001605  69.2955 290.8206 15.06395162118458","REV_AT_EPOCH":"11845","FILE":"3435746","APOAPSIS":"548.340","EPOCH":"2022-05-07T23:53:47.038848","OBJECT_ID":"2020-019C","SEMIMAJOR_AXIS":"6925.363","REF_FRAME":"TEME","MEAN_MOTION":"15.06395162","LAUNCH_DATE":"2020-03-18","MEAN_MOTION_DDOT":"0.0000000000000","MEAN_ANOMALY":"290.8206","EPHEMERIS_TYPE":"0","ARG_OF_PERICENTER":"69.2955","CENTER_NAME":"EARTH","PERIOD":"95.592","RA_OF_ASC_NODE":"339.0677","MEAN_MOTION_DOT":"-0.00000099","RCS_SIZE":"LARGE","INCLINATION":"53.0560","GP_ID":"203013367","TIME_SYSTEM":"UTC","TLE_LINE1":"1 45362U 20019C   22127.99568332 -.00000099  00000-0  12243-4 0  9996","DECAY_DATE":null,"OBJECT_TYPE":"PAYLOAD","BSTAR":"0.00001224300000"},{"MEAN_MOTION_DDOT":"0.0000000000000","LAUNCH_DATE":"2020-03-18","MEAN_ANOMALY":"292.7334","MEAN_MOTION":"15.06397226","ARG_OF_PERICENTER":"67.3803","EPHEMERIS_TYPE":"0","INCLINATION":"53.0556","GP_ID":"203013111","RCS_SIZE":"LARGE","CENTER_NAME":"EARTH","MEAN_MOTION_DOT":"0.00001297","PERIOD":"95.592","RA_OF_ASC_NODE":"306.8621","BSTAR":"0.00010599000000","OBJECT_TYPE":"PAYLOAD","TLE_LINE1":"1 45364U 20019E   22128.48867633  .00001297  00000-0  10599-3 0  9990","TIME_SYSTEM":"UTC","DECAY_DATE":null,"SITE":"AFETR","COUNTRY_CODE":"US","NORAD_CAT_ID":"45364","CLASSIFICATION_TYPE":"U","MEAN_ELEMENT_THEORY":"SGP4","TLE_LINE2":"2 45364  53.0556 306.8621 0001401  67.3803 292.7334 15.06397226118941","REV_AT_EPOCH":"11894","ELEMENT_SET_NO":"999","PERIAPSIS":"546.252","OBJECT_NAME":"STARLINK-1313","ECCENTRICITY":"0.00014010","SEMIMAJOR_AXIS":"6925.357","OBJECT_ID":"2020-019E","REF_FRAME":"TEME","FILE":"3435746","APOAPSIS":"548.192","EPOCH":"2022-05-08T11:43:41.634912"},{"PERIOD":"95.643","MEAN_MOTION_DOT":"-0.00002594","RA_OF_ASC_NODE":"316.6345","CENTER_NAME":"EARTH","GP_ID":"203014363","INCLINATION":"53.0018","RCS_SIZE":"LARGE","DECAY_DATE":null,"TLE_LINE1":"1 45365U 20019F   22128.54093180 -.00002594  00000-0 -15887-3 0  9994","TIME_SYSTEM":"UTC","BSTAR":"-0.00015887000000","OBJECT_TYPE":"PAYLOAD","MEAN_MOTION":"15.05594260","MEAN_MOTION_DDOT":"0.0000000000000","LAUNCH_DATE":"2020-03-18","MEAN_ANOMALY":"284.8326","EPHEMERIS_TYPE":"0","ARG_OF_PERICENTER":"75.2807","OBJECT_NAME":"STARLINK-1317","ECCENTRICITY":"0.00013060","ELEMENT_SET_NO":"999","PERIAPSIS":"548.779","TLE_LINE2":"2 45365  53.0018 316.6345 0001306  75.2807 284.8326 15.05594260118773","REV_AT_EPOCH":"11877","APOAPSIS":"550.589","EPOCH":"2022-05-08T12:58:56.507520","FILE":"3435746","REF_FRAME":"TEME","SEMIMAJOR_AXIS":"6927.819","OBJECT_ID":"2020-019F","SITE":"AFETR","COUNTRY_CODE":"US","MEAN_ELEMENT_THEORY":"SGP4","CLASSIFICATION_TYPE":"U","NORAD_CAT_ID":"45365"},{"EPOCH":"2022-05-08T07:30:14.726880","APOAPSIS":"548.296","FILE":"3435746","REF_FRAME":"TEME","OBJECT_ID":"2020-019G","SEMIMAJOR_AXIS":"6925.360","ECCENTRICITY":"0.00015470","OBJECT_NAME":"STARLINK-1262","ELEMENT_SET_NO":"999","PERIAPSIS":"546.153","REV_AT_EPOCH":"11851","TLE_LINE2":"2 45366  53.0554 337.6361 0001547  74.1209 285.9951 15.06396403118519","MEAN_ELEMENT_THEORY":"SGP4","NORAD_CAT_ID":"45366","CLASSIFICATION_TYPE":"U","COUNTRY_CODE":"US","SITE":"AFETR","DECAY_DATE":null,"TIME_SYSTEM":"UTC","TLE_LINE1":"1 45366U 20019G   22128.31267045  .00000486  00000-0  51553-4 0  9990","BSTAR":"0.00005155300000","OBJECT_TYPE":"PAYLOAD","PERIOD":"95.592","MEAN_MOTION_DOT":"0.00000486","RA_OF_ASC_NODE":"337.6361","CENTER_NAME":"EARTH","RCS_SIZE":"LARGE","INCLINATION":"53.0554","GP_ID":"203014120","EPHEMERIS_TYPE":"0","ARG_OF_PERICENTER":"74.1209","MEAN_MOTION":"15.06396403","MEAN_MOTION_DDOT":"0.0000000000000","LAUNCH_DATE":"2020-03-18","MEAN_ANOMALY":"285.9951"},{"MEAN_ANOMALY":"288.1756","LAUNCH_DATE":"2020-03-18","MEAN_MOTION_DDOT":"0.0000000000000","MEAN_MOTION":"15.06398406","ARG_OF_PERICENTER":"71.9387","EPHEMERIS_TYPE":"0","GP_ID":"203012868","INCLINATION":"53.0545","RCS_SIZE":"LARGE","CENTER_NAME":"EARTH","RA_OF_ASC_NODE":"339.3337","PERIOD":"95.592","MEAN_MOTION_DOT":"-0.00000071","BSTAR":"0.00001412800000","OBJECT_TYPE":"PAYLOAD","TLE_LINE1":"1 45367U 20019H   22127.93670336 -.00000071  00000-0  14128-4 0  9997","TIME_SYSTEM":"UTC","DECAY_DATE":null,"SITE":"AFETR","COUNTRY_CODE":"US","NORAD_CAT_ID":"45367","CLASSIFICATION_TYPE":"U","MEAN_ELEMENT_THEORY":"SGP4","REV_AT_EPOCH":"11845","TLE_LINE2":"2 45367  53.0545 339.3337 0001420  71.9387 288.1756 15.06398406118450","PERIAPSIS":"546.235","ELEMENT_SET_NO":"999","OBJECT_NAME":"STARLINK-1273","ECCENTRICITY":"0.00014200","SEMIMAJOR_AXIS":"6925.353","OBJECT_ID":"2020-019H","REF_FRAME":"TEME","FILE":"3435746","EPOCH":"2022-05-07T22:28:51.170304","APOAPSIS":"548.202"},{"APOAPSIS":"548.184","EPOCH":"2022-05-08T13:41:47.284224","FILE":"3435746","REF_FRAME":"TEME","SEMIMAJOR_AXIS":"6925.370","OBJECT_ID":"2020-019J","OBJECT_NAME":"STARLINK-1276","ECCENTRICITY":"0.00013710","ELEMENT_SET_NO":"999","PERIAPSIS":"546.285","TLE_LINE2":"2 45368  53.0571 336.4790 0001371  90.5626 269.5520 15.06393016118554","REV_AT_EPOCH":"11855","MEAN_ELEMENT_THEORY":"SGP4","NORAD_CAT_ID":"45368","CLASSIFICATION_TYPE":"U","SITE":"AFETR","COUNTRY_CODE":"US","DECAY_DATE":null,"TLE_LINE1":"1 45368U 20019J   22128.57068616  .00000317  00000-0  40176-4 0  9995","TIME_SYSTEM":"UTC","BSTAR":"0.00004017600000","OBJECT_TYPE":"PAYLOAD","PERIOD":"95.593","RA_OF_ASC_NODE":"336.4790","MEAN_MOTION_DOT":"0.00000317","CENTER_NAME":"EARTH","INCLINATION":"53.0571","GP_ID":"203013611","RCS_SIZE":"LARGE","EPHEMERIS_TYPE":"0","ARG_OF_PERICENTER":"90.5626","MEAN_MOTION":"15.06393016","MEAN_ANOMALY":"269.5520","LAUNCH_DATE":"2020-03-18","MEAN_MOTION_DDOT":"0.0000000000000"},{"MEAN_MOTION":"15.06402436","MEAN_ANOMALY":"282.9853","LAUNCH_DATE":"2020-03-18","MEAN_MOTION_DDOT":"0.0000000000000","EPHEMERIS_TYPE":"0","ARG_OF_PERICENTER":"77.1308","CENTER_NAME":"EARTH","RA_OF_ASC_NODE":"336.4890","PERIOD":"95.592","MEAN_MOTION_DOT":"0.00000511","RCS_SIZE":"LARGE","INCLINATION":"53.0552","GP_ID":"202990686","TIME_SYSTEM":"UTC","TLE_LINE1":"1 45369U 20019K   22128.56974319  .00000511  00000-0  53215-4 0  9995","DECAY_DATE":null,"BSTAR":"0.00005321500000","OBJECT_TYPE":"PAYLOAD","COUNTRY_CODE":"US","SITE":"AFETR","MEAN_ELEMENT_THEORY":"SGP4","NORAD_CAT_ID":"45369","CLASSIFICATION_TYPE":"U","ELEMENT_SET_NO":"999","PERIAPSIS":"546.138","ECCENTRICITY":"0.00015420","OBJECT_NAME":"STARLINK-1277","REV_AT_EPOCH":"11855","TLE_LINE2":"2 45369  53.0552 336.4890 0001542  77.1308 282.9853 15.06402436118558","FILE":"3435612","EPOCH":"2022-05-08T13:40:25.811616","APOAPSIS":"548.274","OBJECT_ID":"2020-019K","SEMIMAJOR_AXIS":"6925.341","REF_FRAME":"TEME"}];
